NORAD_CAT_ID,OBJECT_NAME,OBJECT_TYPE,EPOCH,MEAN_MOTION,ECCENTRICITY,INCLINATION,RA_OF_ASC_NODE,ARG_OF_PERICENTER,MEAN_ANOMALY,BSTAR,MEAN_MOTION_DOT,MEAN_MOTION_DDOT,TLE_LINE0,TLE_LINE1,TLE_LINE2,SEMIMAJOR_AXIS,PERIOD,APOGEE,PERIGEE,DECAYED
56487.0,STARLINK-6196,PAYLOAD,2024-05-24 12:40:55,14.987799,0.0002908,70.0007,313.9041,264.4844,95.5983,0.0047015,0.00057126,0.0,0 STARLINK-6196,1 56487U 23064AR  24145.52842410  .00057126  00000-0  47015-2 0  9997,2 56487  70.0007 313.9041 0002908 264.4844  95.5983 14.98779900 58600,6948.802,96.078,572.688,568.646,0.0
56487.0,STARLINK-6196,PAYLOAD,2024-05-24 14:17:02,14.9878629,0.0002613,70.0008,313.7358,252.5902,107.4972,0.004691,0.00057006,0.0,0 STARLINK-6196,1 56487U 23064AR  24145.59516331  .00057006  00000-0  46910-2 0  9994,2 56487  70.0008 313.7358 0002613 252.5902 107.4972 14.98786290 58258,6948.782,96.078,572.463,568.831,0.0
56487.0,STARLINK-6196,PAYLOAD,2024-05-24 20:41:26,14.98813048,0.0003069,69.9989,313.0603,264.7913,95.2896,0.004619,0.00056163,0.0,0 STARLINK-6196,1 56487U 23064AR  24145.86211441  .00056163  00000-0  46190-2 0  9991,2 56487  69.9989 313.0603 0003069 264.7913  95.2896 14.98813048 58297,6948.7,96.076,572.697,568.432,0.0
56487.0,STARLINK-6196,PAYLOAD,2024-05-25 12:42:27,14.98852071,0.0003183,69.9988,311.3762,274.1982,85.8813,0.0041595,0.00050577,0.0,0 STARLINK-6196,1 56487U 23064AR  24146.52948323  .00050577  00000-0  41595-2 0  9998,2 56487  69.9988 311.3762 0003183 274.1982  85.8813 14.98852071 58755,6948.579,96.074,572.656,568.232,0.0
56487.0,STARLINK-6196,PAYLOAD,2024-05-25 14:18:32,14.98857758,0.000307,69.999,311.2079,274.25,85.8308,0.0041413,0.00050361,0.0,0 STARLINK-6196,1 56487U 23064AR  24146.59621475  .00050361  00000-0  41413-2 0  9991,2 56487  69.9990 311.2079 0003070 274.2500  85.8308 14.98857758 58408,6948.561,96.073,572.56,568.293,0.0
56487.0,STARLINK-6196,PAYLOAD,2024-05-25 20:42:55,14.98886828,0.0003165,69.9989,310.5341,272.5108,87.5689,0.0040798,0.00049645,0.0,0 STARLINK-6196,1 56487U 23064AR  24146.86313974  .00049645  00000-0  40798-2 0  9991,2 56487  69.9989 310.5341 0003165 272.5108  87.5689 14.98886828 58805,6948.471,96.071,572.536,568.137,0.0
56487.0,STARLINK-6196,PAYLOAD,2024-05-26 04:43:22,14.98919611,0.000368,69.9992,309.692,265.7133,94.3606,0.0035189,0.00042802,0.0,0 STARLINK-6196,1 56487U 23064AR  24147.19679265  .00042802  00000-0  35189-2 0  9992,2 56487  69.9992 309.6920 0003680 265.7133  94.3606 14.98919611 58852,6948.37,96.069,572.792,567.678,0.0
56487.0,STARLINK-6196,PAYLOAD,2024-05-26 12:43:44,14.99099501,0.0003267,69.9984,308.8481,273.6486,86.43,0.00081716,9.867e-05,0.0,0 STARLINK-6196,1 56487U 23064AR  24147.53037930  .00009867  00000-0  81716-3 0  9999,2 56487  69.9984 308.8481 0003267 273.6486  86.4300 14.99099501 58903,6947.814,96.058,571.949,567.409,0.0
56487.0,STARLINK-6196,PAYLOAD,2024-05-26 14:19:49,14.99100441,0.0003286,69.9984,308.6797,273.3076,86.7708,0.00082702,9.988e-05,0.0,0 STARLINK-6196,1 56487U 23064AR  24147.59710466  .00009988  00000-0  82702-3 0  9997,2 56487  69.9984 308.6797 0003286 273.3076  86.7708 14.99100441 58556,6947.811,96.058,571.959,567.393,0.0
56487.0,STARLINK-6196,PAYLOAD,2024-05-26 20:44:08,14.99147341,0.0003442,69.9985,308.0059,272.1447,87.9319,0.00015575,1.805e-05,0.0,0 STARLINK-6196,1 56487U 23064AR  24147.86398799  .00001805  00000-0  15575-3 0  9992,2 56487  69.9985 308.0059 0003442 272.1447  87.9319 14.99147341 58950,6947.666,96.055,571.923,567.14,0.0
56487.0,STARLINK-6196,PAYLOAD,2024-05-27 12:44:58,14.99139173,0.0003147,69.9992,306.3219,269.0063,91.0736,0.00016727,1.945e-05,0.0,0 STARLINK-6196,1 56487U 23064AR  24148.53123352  .00001945  00000-0  16727-3 0  9993,2 56487  69.9992 306.3219 0003147 269.0063  91.0736 14.99139173 59053,6947.692,96.055,571.743,567.37,0.0
56487.0,STARLINK-6196,PAYLOAD,2024-05-27 14:21:03,14.99139587,0.0003148,69.9992,306.1534,268.981,91.0989,0.00017182,2e-05,0.0,0 STARLINK-6196,1 56487U 23064AR  24148.59795736  .00002000  00000-0  17182-3 0  9999,2 56487  69.9992 306.1534 0003148 268.9810  91.0989 14.99139587 58700,6947.69,96.055,571.743,567.368,0.0
56487.0,STARLINK-6196,PAYLOAD,2024-05-27 20:45:23,14.99144101,0.0003102,69.9993,305.4796,268.7118,91.3687,0.00022725,2.677e-05,0.0,0 STARLINK-6196,1 56487U 23064AR  24148.86485017  .00002677  00000-0  22725-3 0  9996,2 56487  69.9993 305.4796 0003102 268.7118  91.3687 14.99144101 58742,6947.676,96.055,571.697,567.386,0.0
56487.0,STARLINK-6196,PAYLOAD,2024-05-28 12:46:12,14.99143785,0.0002936,69.9997,303.7953,269.6307,90.4516,5.2607e-05,5.47e-06,0.0,0 STARLINK-6196,1 56487U 23064AR  24149.53209151  .00000547  00000-0  52607-4 0  9991,2 56487  69.9997 303.7953 0002936 269.6307  90.4516 14.99143785 59206,6947.677,96.055,571.582,567.503,0.0
56487.0,STARLINK-6196,PAYLOAD,2024-05-28 14:22:17,14.9914365,0.0002943,69.9997,303.6267,269.5021,90.5801,4.5744e-05,4.64e-06,0.0,0 STARLINK-6196,1 56487U 23064AR  24149.59881527  .00000464  00000-0  45744-4 0  9992,2 56487  69.9997 303.6267 0002943 269.5021  90.5801 14.99143650 58852,6947.678,96.055,571.588,567.498,0.0
56487.0,STARLINK-6196,PAYLOAD,2024-05-28 20:46:37,14.99144443,0.000295,69.9997,302.9526,269.0244,91.0578,3.8133e-05,3.71e-06,0.0,0 STARLINK-6196,1 56487U 23064AR  24149.86570933  .00000371  00000-0  38133-4 0  9999,2 56487  69.9997 302.9526 0002950 269.0244  91.0578 14.99144443 58894,6947.675,96.055,571.59,567.491,0.0
56487.0,STARLINK-6196,PAYLOAD,2024-05-29 12:47:26,14.99140639,0.0002856,70.0,301.2688,260.0251,100.0586,5.37e-06,-2.8e-07,0.0,0 STARLINK-6196,1 56487U 23064AR  24150.53295047 -.00000028  00000-0  53700-5 0  9993,2 56487  70.0000 301.2688 0002856 260.0251 100.0586 14.99140639 59352,6947.687,96.055,571.536,567.568,0.0
56487.0,STARLINK-6196,PAYLOAD,2024-05-29 14:23:31,14.9914045,0.0002863,70.0,301.1003,259.8316,100.2521,1.1562e-06,-8e-07,0.0,0 STARLINK-6196,1 56487U 23064AR  24150.59967449 -.00000080  00000-0  11562-5 0  9999,2 56487  70.0000 301.1003 0002863 259.8316 100.2521 14.99140450 59002,6947.688,96.055,571.542,567.564,0.0
56487.0,STARLINK-6196,PAYLOAD,2024-05-29 19:11:46,14.9914014,0.000287,70.0001,300.5952,260.4041,99.6794,-5.839e-06,-1.65e-06,0.0,0 STARLINK-6196,1 56487U 23064AR  24150.79984698 -.00000165  00000-0 -58390-5 0  9991,2 56487  70.0001 300.5952 0002870 260.4041  99.6794 14.99140140 59032,6947.689,96.055,571.548,567.56,0.0
56487.0,STARLINK-6196,PAYLOAD,2024-05-30 12:48:40,14.99141794,0.0002976,69.9999,298.7414,260.9823,99.1,7.0172e-05,7.61e-06,0.0,0 STARLINK-6196,1 56487U 23064AR  24151.53380742  .00000761  00000-0  70172-4 0  9995,2 56487  69.9999 298.7414 0002976 260.9823  99.1000 14.99141794 59509,6947.684,96.055,571.616,567.481,0.0
56487.0,STARLINK-6196,PAYLOAD,2024-05-30 14:24:45,14.9914186,0.0002974,69.9999,298.5729,260.8736,99.2087,7.0181e-05,7.62e-06,0.0,0 STARLINK-6196,1 56487U 23064AR  24151.60053130  .00000762  00000-0  70181-4 0  9992,2 56487  69.9999 298.5729 0002974 260.8736  99.2087 14.99141860 59157,6947.683,96.055,571.615,567.482,0.0
56487.0,STARLINK-6196,PAYLOAD,2024-05-30 17:36:55,14.99143264,0.0002967,69.9999,298.2359,260.3703,99.7121,8.4648e-05,9.38e-06,0.0,0 STARLINK-6196,1 56487U 23064AR  24151.73397785  .00000938  00000-0  84648-4 0  9991,2 56487  69.9999 298.2359 0002967 260.3703  99.7121 14.99143264 59170,6947.679,96.055,571.605,567.483,0.0
56487.0,STARLINK-6196,PAYLOAD,2024-05-31 12:49:55,14.99139247,0.0002922,70.0,296.2148,258.8528,101.2303,8.6997e-05,9.66e-06,0.0,0 STARLINK-6196,1 56487U 23064AR  24152.53466770  .00000966  00000-0  86997-4 0  9991,2 56487  70.0000 296.2148 0002922 258.8528 101.2303 14.99139247 59658,6947.691,96.055,571.587,567.526,0.0
56487.0,STARLINK-6196,PAYLOAD,2024-05-31 14:26:00,14.99139787,0.0002904,70.0001,296.0464,258.3644,101.7189,9.3217e-05,1.042e-05,0.0,0 STARLINK-6196,1 56487U 23064AR  24152.60139122  .00001042  00000-0  93217-4 0  9996,2 56487  70.0001 296.0464 0002904 258.3644 101.7189 14.99139787 59300,6947.69,96.055,571.572,567.537,0.0
56487.0,STARLINK-6196,PAYLOAD,2024-05-31 19:14:14,14.99145038,0.0003174,69.9994,295.5389,267.0364,93.0432,7.273e-05,7.93e-06,0.0,0 STARLINK-6196,1 56487U 23064AR  24152.80155966  .00000793  00000-0  72730-4 0  9991,2 56487  69.9994 295.5389 0003174 267.0364  93.0432 14.99145038 59337,6947.674,96.055,571.744,567.333,0.0
56487.0,STARLINK-6196,PAYLOAD,2024-06-01 12:51:09,14.99136891,0.0003095,69.9993,293.6857,268.656,91.4245,-6.6397e-06,-1.75e-06,0.0,0 STARLINK-6196,1 56487U 23064AR  24153.53553086 -.00000175  00000-0 -66397-5 0  9996,2 56487  69.9993 293.6857 0003095 268.6560  91.4245 14.99136891 59805,6947.699,96.055,571.714,567.413,0.0
56487.0,STARLINK-6196,PAYLOAD,2024-06-01 14:27:14,14.99135973,0.0003201,69.9992,293.5172,268.0194,92.0599,3.0211e-05,2.74e-06,0.0,0 STARLINK-6196,1 56487U 23064AR  24153.60225446  .00000274  00000-0  30211-4 0  9993,2 56487  69.9992 293.5172 0003201 268.0194  92.0599 14.99135973 59459,6947.702,96.055,571.791,567.343,0.0
56487.0,STARLINK-6196,PAYLOAD,2024-06-02 11:16:19,14.99137167,0.0003164,69.9994,291.3286,269.8562,90.2234,4.2516e-05,4.24e-06,0.0,0 STARLINK-6196,1 56487U 23064AR  24154.46966579  .00000424  00000-0  42516-4 0  9995,2 56487  69.9994 291.3286 0003164 269.8562  90.2234 14.99137167 59586,6947.698,96.055,571.761,567.365,0.0
56487.0,STARLINK-6196,PAYLOAD,2024-06-02 16:04:33,14.99141964,0.0003176,69.9993,290.8235,269.6052,90.4743,4.7189e-05,4.81e-06,0.0,0 STARLINK-6196,1 56487U 23064AR  24154.66983486  .00000481  00000-0  47189-4 0  9997,2 56487  69.9993 290.8235 0003176 269.6052  90.4743 14.99141964 59978,6947.683,96.055,571.755,567.342,0.0
56487.0,STARLINK-6196,PAYLOAD,2024-06-03 11:17:33,14.99139332,0.0003192,69.9994,288.8021,271.3254,88.754,0.00010363,1.169e-05,0.0,0 STARLINK-6196,1 56487U 23064AR  24155.47052339  .00001169  00000-0  10363-3 0  9998,2 56487  69.9994 288.8021 0003192 271.3254  88.7540 14.99139332 59736,6947.691,96.055,571.774,567.339,0.0
